{"type": "FeatureCollection", "features": [ {"type": "Feature", "properties": {"norad_id": 46992, "name": "FENGYUN 1C DEB", "group": "fengyun-1c-debris", "lat": -10.191659034186804, "lon": 165.5031843563159, "alt_km": 875.4963032173046, "timestamp": "2025-12-26T17:24:55.009964+00:00", "meta": {"OBJECT_NAME": "FENGYUN 1C DEB", "OBJECT_ID": "1999-025EZS", "EPOCH": "2025-12-24T16:30:54.083808", "MEAN_MOTION": 14.0071494, "ECCENTRICITY": 0.00724273, "INCLINATION": 98.9011, "RA_OF_ASC_NODE": 345.133, "ARG_OF_PERICENTER": 127.6993, "MEAN_ANOMALY": 233.0769, "EPHEMERIS_TYPE": 0, "CLASSIFICATION_TYPE": "U", "NORAD_CAT_ID": 46992, "ELEMENT_SET_NO": 999, "REV_AT_EPOCH": 61124, "BSTAR": 0.00045239816, "MEAN_MOTION_DOT": 6.47e-06, "MEAN_MOTION_DDOT": 0}, "tle": {"line1": "1 46992U 99025EZS 25358.68812597  .00000647  00000+0  45240-3 0  9998", "line2": "2 46992  98.9011 345.1330 0072427 127.6993 233.0769 14.00714940611242"}}, "geometry": {"type": "Point", "coordinates": [165.5031843563159, -10.191659034186804]}}, {"type": "Feature", "properties": {"norad_id": 46993, "name": "FENGYUN 1C DEB", "group": "fengyun-1c-debris", "lat": -64.1373915436459, "lon": -80.59132558387859, "alt_km": 823.845611305308, "timestamp": "2025-12-26T17:24:55.009974+00:00", "meta": {"OBJECT_NAME": "FENGYUN 1C DEB", "OBJECT_ID": "1999-025EZT", "EPOCH": "2025-12-18T13:48:38.255328", "MEAN_MOTION": 13.69154142, "ECCENTRICITY": 0.02625123, "INCLINATION": 98.7233, "RA_OF_ASC_NODE": 110.4847, "ARG_OF_PERICENTER": 283.8917, "MEAN_ANOMALY": 132.0062, "EPHEMERIS_TYPE": 0, "CLASSIFICATION_TYPE": "U", "NORAD_CAT_ID": 46993, "ELEMENT_SET_NO": 999, "REV_AT_EPOCH": 60337, "BSTAR": 0.00040493614, "MEAN_MOTION_DOT": 4.06e-06, "MEAN_MOTION_DDOT": 0}, "tle": {"line1": "1 46993U 99025EZT 25352.57544277  .00000406  00000+0  40494-3 0  9997", "line2": "2 46993  98.7233 110.4847 0262512 283.8917 132.0062 13.69154142603375"}}, "geometry": {"type": "Point", "coordinates": [-80.59132558387859, -64.1373915436459]}}, {"type": "Feature", "properties": {"norad_id": 46995, "name": "FENGYUN 1C DEB", "group": "fengyun-1c-debris", "lat": 22.14002460171629, "lon": 78.07262894780575, "alt_km": 865.0553946308528, "timestamp": "2025-12-26T17:24:55.009984+00:00", "meta": {"OBJECT_NAME": "FENGYUN 1C DEB", "OBJECT_ID": "1999-025EZV", "EPOCH": "2025-12-23T04:26:24.187488", "MEAN_MOTION": 13.8641105, "ECCENTRICITY": 0.01880773, "INCLINATION": 98.595, "RA_OF_ASC_NODE": 78.3463, "ARG_OF_PERICENTER": 89.717, "MEAN_ANOMALY": 272.5537, "EPHEMERIS_TYPE": 0, "CLASSIFICATION_TYPE": "U", "NORAD_CAT_ID": 46995, "ELEMENT_SET_NO": 999, "REV_AT_EPOCH": 60613, "BSTAR": 0.0022808923, "MEAN_MOTION_DOT": 3e-05, "MEAN_MOTION_DDOT": 0}, "tle": {"line1": "1 46995U 99025EZV 25357.18500217  .00003000  00000+0  22809-2 0  9999", "line2": "2 46995  98.5950  78.3463 0188077  89.7170 272.5537 13.86411050606131"}}, "geometry": {"type": "Point", "coordinates": [78.07262894780575, 22.14002460171629]}}, {"type": "Feature", "properties": {"norad_id": 46997, "name": "FENGYUN 1C DEB", "group": "fengyun-1c-debris", "lat": -76.46990977179597, "lon": 79.51968008533301, "alt_km": 788.1987040041558, "timestamp": "2025-12-26T17:24:55.009994+00:00", "meta": {"OBJECT_NAME": "FENGYUN 1C DEB", "OBJECT_ID": "1999-025EZX", "EPOCH": "2025-12-24T21:13:44.521248", "MEAN_MOTION": 14.28060858, "ECCENTRICITY": 0.0024736, "INCLINATION": 98.5571, "RA_OF_ASC_NODE": 38.9817, "ARG_OF_PERICENTER": 298.9798, "MEAN_ANOMALY": 241.8889, "EPHEMERIS_TYPE": 0, "CLASSIFICATION_TYPE": "U", "NORAD_CAT_ID": 46997, "ELEMENT_SET_NO": 999, "REV_AT_EPOCH": 62624, "BSTAR": 0.0011356, "MEAN_MOTION_DOT": 2.787e-05, "MEAN_MOTION_DDOT": 0}, "tle": {"line1": "1 46997U 99025EZX 25358.88454307  .00002787  00000+0  11356-2 0  9993", "line2": "2 46997  98.5571  38.9817 0024736 298.9798 241.8889 14.28060858626244"}}, "geometry": {"type": "Point", "coordinates": [79.51968008533301, -76.46990977179597]}}, {"type": "Feature", "properties": {"norad_id": 47001, "name": "FENGYUN 1C DEB", "group": "fengyun-1c-debris", "lat": 65.27244782880256, "lon": -99.22323990075137, "alt_km": 765.7036500429886, "timestamp": "2025-12-26T17:24:55.010004+00:00", "meta": {"OBJECT_NAME": "FENGYUN 1C DEB", "OBJECT_ID": "1999-025FAB", "EPOCH": "2025-12-21T21:42:56.731392", "MEAN_MOTION": 14.38539606, "ECCENTRICITY": 0.00511443, "INCLINATION": 99.3039, "RA_OF_ASC_NODE": 54.7035, "ARG_OF_PERICENTER": 22.5834, "MEAN_ANOMALY": 337.7586, "EPHEMERIS_TYPE": 0, "CLASSIFICATION_TYPE": "U", "NORAD_CAT_ID": 47001, "ELEMENT_SET_NO": 999, "REV_AT_EPOCH": 74046, "BSTAR": 0.0013955962, "MEAN_MOTION_DOT": 4.285e-05, "MEAN_MOTION_DDOT": 0}, "tle": {"line1": "1 47001U 99025FAB 25355.90482328  .00004285  00000+0  13956-2 0  9997", "line2": "2 47001  99.3039  54.7035 0051144  22.5834 337.7586 14.38539606740465"}}, "geometry": {"type": "Point", "coordinates": [-99.22323990075137, 65.27244782880256]}}, {"type": "Feature", "properties": {"norad_id": 47005, "name": "FENGYUN 1C DEB", "group": "fengyun-1c-debris", "lat": -69.38518681105894, "lon": -116.1307231467679, "alt_km": 830.0231322324116, "timestamp": "2025-12-26T17:24:55.010014+00:00", "meta": {"OBJECT_NAME": "FENGYUN 1C DEB", "OBJECT_ID": "1999-025FAF", "EPOCH": "2025-12-21T12:05:43.680192", "MEAN_MOTION": 14.11117395, "ECCENTRICITY": 0.00655889, "INCLINATION": 99.6008, "RA_OF_ASC_NODE": 85.032, "ARG_OF_PERICENTER": 219.2127, "MEAN_ANOMALY": 159.8182, "EPHEMERIS_TYPE": 0, "CLASSIFICATION_TYPE": "U", "NORAD_CAT_ID": 47005, "ELEMENT_SET_NO": 999, "REV_AT_EPOCH": 82891, "BSTAR": 0.0018102005, "MEAN_MOTION_DOT": 3.277e-05, "MEAN_MOTION_DDOT": 0}, "tle": {"line1": "1 47005U 99025FAF 25355.50397778  .00003277  00000+0  18102-2 0  9999", "line2": "2 47005  99.6008  85.0320 0065588 219.2127 159.8182 14.11117395828919"}}, "geometry": {"type": "Point", "coordinates": [-116.1307231467679, -69.38518681105894]}}, {"type": "Feature", "properties": {"norad_id": 47007, "name": "FENGYUN 1C DEB", "group": "fengyun-1c-debris", "lat": 46.16098221679773, "lon": -147.4105612055539, "alt_km": 751.9953245974411, "timestamp": "2025-12-26T17:24:55.010024+00:00", "meta": {"OBJECT_NAME": "FENGYUN 1C DEB", "OBJECT_ID": "1999-025FAH", "EPOCH": "2025-12-24T20:31:18.466176", "MEAN_MOTION": 13.97325313, "ECCENTRICITY": 0.02372126, "INCLINATION": 98.2081, "RA_OF_ASC_NODE": 219.5608, "ARG_OF_PERICENTER": 19.6973, "MEAN_ANOMALY": 341.3167, "EPHEMERIS_TYPE": 0, "CLASSIFICATION_TYPE": "U", "NORAD_CAT_ID": 47007, "ELEMENT_SET_NO": 999, "REV_AT_EPOCH": 79018, "BSTAR": 0.0025662344, "MEAN_MOTION_DOT": 4.534e-05, "MEAN_MOTION_DDOT": 0}, "tle": {"line1": "1 47007U 99025FAH 25358.85507484  .00004534  00000+0  25662-2 0  9995", "line2": "2 47007  98.2081 219.5608 0237212  19.6973 341.3167 13.97325313790188"}}, "geometry": {"type": "Point", "coordinates": [-147.4105612055539, 46.16098221679773]}}, {"type": "Feature", "properties": {"norad_id": 47009, "name": "FENGYUN 1C DEB", "group": "fengyun-1c-debris", "lat": -36.5710225012221, "lon": 156.1588432870455, "alt_km": 864.2023515442907, "timestamp": "2025-12-26T17:24:55.010034+00:00", "meta": {"OBJECT_NAME": "FENGYUN 1C DEB", "OBJECT_ID": "1999-025FAK", "EPOCH": "2025-12-21T05:14:14.201088", "MEAN_MOTION": 13.37315869, "ECCENTRICITY": 0.0351179, "INCLINATION": 98.9317, "RA_OF_ASC_NODE": 338.0153, "ARG_OF_PERICENTER": 238.1062, "MEAN_ANOMALY": 118.5455, "EPHEMERIS_TYPE": 0, "CLASSIFICATION_TYPE": "U", "NORAD_CAT_ID": 47009, "ELEMENT_SET_NO": 999, "REV_AT_EPOCH": 58922, "BSTAR": 0.00028582, "MEAN_MOTION_DOT": 1.74e-06, "MEAN_MOTION_DDOT": 0}, "tle": {"line1": "1 47009U 99025FAK 25355.21821992  .00000174  00000+0  28582-3 0  9998", "line2": "2 47009  98.9317 338.0153 0351179 238.1062 118.5455 13.37315869589221"}}, "geometry": {"type": "Point", "coordinates": [156.1588432870455, -36.5710225012221]}}, {"type": "Feature", "properties": {"norad_id": 47012, "name": "FENGYUN 1C DEB", "group": "fengyun-1c-debris", "lat": 45.738919920637706, "lon": 67.22049392876629, "alt_km": 1001.6383166206178, "timestamp": "2025-12-26T17:24:55.010044+00:00", "meta": {"OBJECT_NAME": "FENGYUN 1C DEB", "OBJECT_ID": "1999-025FAN", "EPOCH": "2025-12-05T22:22:36.481152", "MEAN_MOTION": 13.77908149, "ECCENTRICITY": 0.01638485, "INCLINATION": 98.755, "RA_OF_ASC_NODE": 218.9381, "ARG_OF_PERICENTER": 81.7177, "MEAN_ANOMALY": 280.2518, "EPHEMERIS_TYPE": 0, "CLASSIFICATION_TYPE": "U", "NORAD_CAT_ID": 47012, "ELEMENT_SET_NO": 999, "REV_AT_EPOCH": 54479, "BSTAR": 0.00065808903, "MEAN_MOTION_DOT": 6.91e-06, "MEAN_MOTION_DDOT": 0}, "tle": {"line1": "1 47012U 99025FAN 25339.93236668  .00000691  00000+0  65809-3 0  9990", "line2": "2 47012  98.7550 218.9381 0163848  81.7177 280.2518 13.77908149544797"}}, "geometry": {"type": "Point", "coordinates": [67.22049392876629, 45.738919920637706]}}, {"type": "Feature", "properties": {"norad_id": 47015, "name": "FENGYUN 1C DEB", "group": "fengyun-1c-debris", "lat": -31.961434383086182, "lon": -126.693050315511, "alt_km": 710.3907927210284, "timestamp": "2025-12-26T17:24:55.010073+00:00", "meta": {"OBJECT_NAME": "FENGYUN 1C DEB", "OBJECT_ID": "1999-025FAR", "EPOCH": "2025-12-24T03:07:57.208800", "MEAN_MOTION": 14.87536317, "ECCENTRICITY": 0.01753341, "INCLINATION": 98.7084, "RA_OF_ASC_NODE": 55.9475, "ARG_OF_PERICENTER": 76.2104, "MEAN_ANOMALY": 285.8553, "EPHEMERIS_TYPE": 0, "CLASSIFICATION_TYPE": "U", "NORAD_CAT_ID": 47015, "ELEMENT_SET_NO": 999, "REV_AT_EPOCH": 64551, "BSTAR": 0.00064777289, "MEAN_MOTION_DOT": 7.74e-05, "MEAN_MOTION_DDOT": 0}, "tle": {"line1": "1 47015U 99025FAR 25358.13052325  .00007740  00000+0  64777-3 0  9997", "line2": "2 47015  98.7084  55.9475 0175334  76.2104 285.8553 14.87536317645515"}}, "geometry": {"type": "Point", "coordinates": [-126.693050315511, -31.961434383086182]}}]}